[
    {
        "Altitude(m)": 566587.7116956927,
        "Argument of Periapsis(deg)": 0.006622991110713501,
        "Eccentricity": 0.0,
        "Inclination(deg)": 53.0,
        "Latitude(deg)": -40.16472868359705,
        "Longitude(deg)": 49.98982132521878,
        "Mean Anomaly(deg)": -53.54470713242234,
        "RAAN(deg)": 189.99014336852804,
        "Satellite Name": "Starlink Shell 1 854",
        "Satellite Number": 854,
        "Semi-Major Axis(m)": 6931778.249405717,
        "Time(s)": 190
    },
    {
        "Altitude(m)": 566426.8603692012,
        "Argument of Periapsis(deg)": 0.0069715695902247375,
        "Eccentricity": 0.0,
        "Inclination(deg)": 53.0,
        "Latitude(deg)": -39.77523962290602,
        "Longitude(deg)": 50.58629193569233,
        "Mean Anomaly(deg)": -52.917875928865655,
        "RAAN(deg)": 189.98962459845052,
        "Satellite Name": "Starlink Shell 1 854",
        "Satellite Number": 854,
        "Semi-Major Axis(m)": 6931778.249405717,
        "Time(s)": 200
    },
    {
        "Altitude(m)": 566264.6656890103,
        "Argument of Periapsis(deg)": 0.007320148069735974,
        "Eccentricity": 0.0,
        "Inclination(deg)": 53.0,
        "Latitude(deg)": -39.382250087440234,
        "Longitude(deg)": 51.175603288854404,
        "Mean Anomaly(deg)": -52.29104472530902,
        "RAAN(deg)": 189.98910582837308,
        "Satellite Name": "Starlink Shell 1 854",
        "Satellite Number": 854,
        "Semi-Major Axis(m)": 6931778.249405717,
        "Time(s)": 210
    },
    {
        "Altitude(m)": 566101.1907154839,
        "Argument of Periapsis(deg)": 0.007668726549247212,
        "Eccentricity": 0.0,
        "Inclination(deg)": 53.0,
        "Latitude(deg)": -38.98584533165125,
        "Longitude(deg)": 51.757872486349925,
        "Mean Anomaly(deg)": -51.66421352175224,
        "RAAN(deg)": 189.98858705829562,
        "Satellite Name": "Starlink Shell 1 854",
        "Satellite Number": 854,
        "Semi-Major Axis(m)": 6931778.249405717,
        "Time(s)": 220
    },
    {
        "Altitude(m)": 565936.4989342426,
        "Argument of Periapsis(deg)": 0.00801730502875845,
        "Eccentricity": 0.0,
        "Inclination(deg)": 53.0,
        "Latitude(deg)": -38.58610882273458,
        "Longitude(deg)": 52.333217396711426,
        "Mean Anomaly(deg)": -51.037382318195476,
        "RAAN(deg)": 189.98806828821813,
        "Satellite Name": "Starlink Shell 1 854",
        "Satellite Number": 854,
        "Semi-Major Axis(m)": 6931778.249405717,
        "Time(s)": 230
    },
    {
        "Altitude(m)": 565770.6542279846,
        "Argument of Periapsis(deg)": 0.008365883508269684,
        "Eccentricity": 0.0,
        "Inclination(deg)": 53.0,
        "Latitude(deg)": -38.18312225845619,
        "Longitude(deg)": 52.901756955617024,
        "Mean Anomaly(deg)": -50.41055111463883,
        "RAAN(deg)": 189.98754951814067,
        "Satellite Name": "Starlink Shell 1 854",
        "Satellite Number": 854,
        "Semi-Major Axis(m)": 6931778.249405717,
        "Time(s)": 240
    },
    {
        "Altitude(m)": 565603.720848093,
        "Argument of Periapsis(deg)": 0.008714461987780921,
        "Eccentricity": 0.0,
        "Inclination(deg)": 53.0,
        "Latitude(deg)": -37.776965587229384,
        "Longitude(deg)": 53.463609967675715,
        "Mean Anomaly(deg)": -49.78371991108209,
        "RAAN(deg)": 189.9870307480632,
        "Satellite Name": "Starlink Shell 1 854",
        "Satellite Number": 854,
        "Semi-Major Axis(m)": 6931778.249405717,
        "Time(s)": 250
    },
    {
        "Altitude(m)": 565435.7633861086,
        "Argument of Periapsis(deg)": 0.009063040467292158,
        "Eccentricity": 0.0,
        "Inclination(deg)": 53.0,
        "Latitude(deg)": -37.36771703019783,
        "Longitude(deg)": 54.018895434893246,
        "Mean Anomaly(deg)": -49.15688870752541,
        "RAAN(deg)": 189.9865119779857,
        "Satellite Name": "Starlink Shell 1 854",
        "Satellite Number": 854,
        "Semi-Major Axis(m)": 6931778.249405717,
        "Time(s)": 260
    },
    {
        "Altitude(m)": 565266.8467449658,
        "Argument of Periapsis(deg)": 0.009411618946803396,
        "Eccentricity": 0.0,
        "Inclination(deg)": 53.0,
        "Latitude(deg)": -36.955453105099444,
        "Longitude(deg)": 54.56773289835135,
        "Mean Anomaly(deg)": -48.53005750396864,
        "RAAN(deg)": 189.98599320790825,
        "Satellite Name": "Starlink Shell 1 854",
        "Satellite Number": 854,
        "Semi-Major Axis(m)": 6931778.249405717,
        "Time(s)": 270
    },
    {
        "Altitude(m)": 565097.0361101639,
        "Argument of Periapsis(deg)": 0.009760197426314633,
        "Eccentricity": 0.0,
        "Inclination(deg)": 53.0,
        "Latitude(deg)": -36.54024865170277,
        "Longitude(deg)": 55.11024127962633,
        "Mean Anomaly(deg)": -47.903226300411994,
        "RAAN(deg)": 189.98547443783076,
        "Satellite Name": "Starlink Shell 1 854",
        "Satellite Number": 854,
        "Semi-Major Axis(m)": 6931778.249405717,
        "Time(s)": 280
    },
    {
        "Altitude(m)": 564926.3969206942,
        "Argument of Periapsis(deg)": 0.01010877590582587,
        "Eccentricity": 0.0,
        "Inclination(deg)": 53.0,
        "Latitude(deg)": -36.12217685861357,
        "Longitude(deg)": 55.646539247093955,
        "Mean Anomaly(deg)": -47.276395096855225,
        "RAAN(deg)": 189.98495566775333,
        "Satellite Name": "Starlink Shell 1 854",
        "Satellite Number": 854,
        "Semi-Major Axis(m)": 6931778.249405717,
        "Time(s)": 290
    },
    {
        "Altitude(m)": 564754.9948399191,
        "Argument of Periapsis(deg)": 0.010457354385337106,
        "Eccentricity": 0.0,
        "Inclination(deg)": 53.0,
        "Latitude(deg)": -35.70130929127167,
        "Longitude(deg)": 56.17674559365299,
        "Mean Anomaly(deg)": -46.64956389329858,
        "RAAN(deg)": 189.9844368976758,
        "Satellite Name": "Starlink Shell 1 854",
        "Satellite Number": 854,
        "Semi-Major Axis(m)": 6931778.249405717,
        "Time(s)": 300
    },
    {
        "Altitude(m)": 564582.8957262927,
        "Argument of Periapsis(deg)": 0.010805932864848343,
        "Eccentricity": 0.0,
        "Inclination(deg)": 53.0,
        "Latitude(deg)": -35.277715920967225,
        "Longitude(deg)": 56.70097811241284,
        "Mean Anomaly(deg)": -46.02273268974183,
        "RAAN(deg)": 189.98391812759837,
        "Satellite Name": "Starlink Shell 1 854",
        "Satellite Number": 854,
        "Semi-Major Axis(m)": 6931778.249405717,
        "Time(s)": 310
    },
    {
        "Altitude(m)": 564410.1656039888,
        "Argument of Periapsis(deg)": 0.01115451134435958,
        "Eccentricity": 0.0,
        "Inclination(deg)": 53.0,
        "Latitude(deg)": -34.851465154717495,
        "Longitude(deg)": 57.219353995511455,
        "Mean Anomaly(deg)": -45.39590148618514,
        "RAAN(deg)": 189.98339935752085,
        "Satellite Name": "Starlink Shell 1 854",
        "Satellite Number": 854,
        "Semi-Major Axis(m)": 6931778.249405717,
        "Time(s)": 320
    },
    {
        "Altitude(m)": 564236.8706334553,
        "Argument of Periapsis(deg)": 0.011503089823870818,
        "Eccentricity": 0.0,
        "Inclination(deg)": 53.0,
        "Latitude(deg)": -34.42262386585787,
        "Longitude(deg)": 57.73199024263295,
        "Mean Anomaly(deg)": -44.76907028262839,
        "RAAN(deg)": 189.98288058744342,
        "Satellite Name": "Starlink Shell 1 854",
        "Satellite Number": 854,
        "Semi-Major Axis(m)": 6931778.249405717,
        "Time(s)": 330
    },
    {
        "Altitude(m)": 564063.0770818567,
        "Argument of Periapsis(deg)": 0.011851668303382053,
        "Eccentricity": 0.0,
        "Inclination(deg)": 53.0,
        "Latitude(deg)": -33.99125742521689,
        "Longitude(deg)": 58.23900256580418,
        "Mean Anomaly(deg)": -44.14223907907164,
        "RAAN(deg)": 189.98236181736596,
        "Satellite Name": "Starlink Shell 1 854",
        "Satellite Number": 854,
        "Semi-Major Axis(m)": 6931778.249405717,
        "Time(s)": 340
    },
    {
        "Altitude(m)": 563888.8512934899,
        "Argument of Periapsis(deg)": 0.012200246782893292,
        "Eccentricity": 0.0,
        "Inclination(deg)": 53.0,
        "Latitude(deg)": -33.55742973274639,
        "Longitude(deg)": 58.74050581568598,
        "Mean Anomaly(deg)": -43.515407875514974,
        "RAAN(deg)": 189.98184304728846,
        "Satellite Name": "Starlink Shell 1 854",
        "Satellite Number": 854,
        "Semi-Major Axis(m)": 6931778.249405717,
        "Time(s)": 350
    },
    {
        "Altitude(m)": 563714.25966013,
        "Argument of Periapsis(deg)": 0.012548825262404526,
        "Eccentricity": 0.0,
        "Inclination(deg)": 53.0,
        "Latitude(deg)": -33.121203249496936,
        "Longitude(deg)": 59.23661441597354,
        "Mean Anomaly(deg)": -42.888576671958226,
        "RAAN(deg)": 189.981324277211,
        "Satellite Name": "Starlink Shell 1 854",
        "Satellite Number": 854,
        "Semi-Major Axis(m)": 6931778.249405717,
        "Time(s)": 360
    },
    {
        "Altitude(m)": 563539.3685913703,
        "Argument of Periapsis(deg)": 0.012897403741915765,
        "Eccentricity": 0.0,
        "Inclination(deg)": 53.0,
        "Latitude(deg)": -32.68263902983646,
        "Longitude(deg)": 59.727441292539595,
        "Mean Anomaly(deg)": -42.26174546840146,
        "RAAN(deg)": 189.98080550713354,
        "Satellite Name": "Starlink Shell 1 854",
        "Satellite Number": 854,
        "Semi-Major Axis(m)": 6931778.249405717,
        "Time(s)": 370
    }
]